GLOBALSTAR M057 [-]     
1 25943U 99058A   23309.90372369 -.00000046  00000+0  42776-3 0  9999
2 25943  51.9982 220.5055 0001681 238.8745 121.1939 12.24778052 94727
GLOBALSTAR M059 [-]     
1 25944U 99058B   23310.16961274 -.00000079  00000+0  86601-4 0  9991
2 25944  52.0047   0.6192 0000282 198.4220 195.2232 11.99954038 92082
GLOBALSTAR M056 [-]     
1 25945U 99058C   23309.44716897 -.00000082  00000+0  58479-4 0  9996
2 25945  51.9996  19.6839 0001349 106.2539 265.7308 12.04771079 91543
GLOBALSTAR M031 [-]     
1 25946U 99058D   23309.75012953  .00000047  00000+0  13941-2 0  9996
2 25946  51.9972 306.4444 0001911  59.1114 112.3576 12.15998428 92835
GLOBALSTAR M039 [-]     
1 25961U 99062A   23309.33949101 -.00000060  00000+0  24178-3 0  9997
2 25961  51.9848 265.1929 0003075 110.5289 249.5908 12.62273461105721
GLOBALSTAR M034 [-]     
1 25962U 99062B   23309.67930023 -.00000057  00000+0  37344-3 0  9993
2 25962  51.9851 103.7245 0014026  12.6616   1.6408 11.79417084 68838
GLOBALSTAR M029 [-]     
1 25963U 99062C   23309.58681031 -.00000052  00000+0  42002-3 0  9998
2 25963  51.9804 250.7348 0003304  42.2964 129.0988 11.99869877 98346
GLOBALSTAR M061 [-]     
1 25964U 99062D   23309.65772997 -.00000053  00000+0  44654-3 0  9995
2 25964  51.9795 280.0084 0005917 302.4797 228.4953 11.76752872 51779
